[{"norad_id":"66228","company":"STARLINK","tle_line2":"2 66228  53.1606 304.2258 0001190 107.2144 328.0497 15.39654990  6056","launch_date":"2025-10-28","type":"LEO","tle_line1":"1 66228U 25244Y   25340.66670139 -.00113580  00000+0 -28687-2 0  9995","satellite_name":"STARLINK-35731"},{"norad_id":"66229","company":"STARLINK","tle_line2":"2 66229  53.1603 305.8170 0001416 109.2989 250.8169 15.39634633  7336","launch_date":"2025-10-28","type":"LEO","tle_line1":"1 66229U 25244Z   25340.32825325  .00081139  00000+0  20160-2 0  9998","satellite_name":"STARLINK-35758"},{"norad_id":"66230","company":"STARLINK","tle_line2":"2 66230  53.1596 305.7895 0000360 187.7647 172.3352 15.39685887  7330","launch_date":"2025-10-28","type":"LEO","tle_line1":"1 66230U 25244AA  25340.32393330  .00070252  00000+0  17464-2 0  9993","satellite_name":"STARLINK-35736"},{"norad_id":"66231","company":"STARLINK","tle_line2":"2 66231  53.1615 305.7878 0000230 270.2619  89.8360 15.39694148  7338","launch_date":"2025-10-28","type":"LEO","tle_line1":"1 66231U 25244AB  25340.32360295  .00078407  00000+0  19453-2 0  9998","satellite_name":"STARLINK-35735"},{"norad_id":"66232","company":"STARLINK","tle_line2":"2 66232  53.1609 305.7611 0001195  84.5295 275.5846 15.39644570  7331","launch_date":"2025-10-28","type":"LEO","tle_line1":"1 66232U 25244AC  25340.31929436  .00070077  00000+0  17444-2 0  9999","satellite_name":"STARLINK-35753"},{"norad_id":"66233","company":"STARLINK","tle_line2":"2 66233  53.1604 305.6920 0001089  87.8507 352.0846 15.39587903  5934","launch_date":"2025-10-28","type":"LEO","tle_line1":"1 66233U 25244AD  25340.33335648  .00070694  00000+0  17629-2 0  9998","satellite_name":"STARLINK-35626"},{"norad_id":"66234","company":"STARLINK","tle_line2":"2 66234  53.1616 359.7697 0001141  75.6151 284.4980 15.39634018  6936","launch_date":"2025-10-29","type":"LEO","tle_line1":"1 66234U 25245A   25340.35571992  .00088988  00000+0  22078-2 0  9995","satellite_name":"STARLINK-35537"},{"norad_id":"66235","company":"STARLINK","tle_line2":"2 66235  53.1607 359.7680 0001155 104.7970 255.3163 15.39633432  6880","launch_date":"2025-10-29","type":"LEO","tle_line1":"1 66235U 25245B   25340.35538910  .00092607  00000+0  22961-2 0  9993","satellite_name":"STARLINK-35541"},{"norad_id":"66236","company":"STARLINK","tle_line2":"2 66236  53.1602 359.7399 0001777 109.1511 250.9686 15.39647166  6771","launch_date":"2025-10-29","type":"LEO","tle_line1":"1 66236U 25245C   25340.35107658  .00077883  00000+0  19355-2 0  9997","satellite_name":"STARLINK-35454"},{"norad_id":"66237","company":"STARLINK","tle_line2":"2 66237  53.1602 358.2493 0001281  86.5418 225.8020 15.39652448  6069","launch_date":"2025-10-29","type":"LEO","tle_line1":"1 66237U 25245D   25340.66670139 -.00084751  00000+0 -21301-2 0  9999","satellite_name":"STARLINK-35557"},{"norad_id":"66238","company":"STARLINK","tle_line2":"2 66238  53.1608 358.7923 0001328 111.6862 248.4284 15.39708872  6969","launch_date":"2025-10-29","type":"LEO","tle_line1":"1 66238U 25245E   25340.54117531  .00076183  00000+0  18900-2 0  9998","satellite_name":"STARLINK-35556"},{"norad_id":"66239","company":"STARLINK","tle_line2":"2 66239  53.1615 359.0955 0001456 111.4120 248.7040 15.39647431  6791","launch_date":"2025-10-29","type":"LEO","tle_line1":"1 66239U 25245F   25340.47592985  .00074726  00000+0  18582-2 0  9998","satellite_name":"STARLINK-35554"},{"norad_id":"66240","company":"STARLINK","tle_line2":"2 66240  53.1602 359.0690 0001191 103.4342 256.6796 15.39654808  6958","launch_date":"2025-10-29","type":"LEO","tle_line1":"1 66240U 25245G   25340.47161582  .00093243  00000+0  23100-2 0  9992","satellite_name":"STARLINK-35546"},{"norad_id":"66241","company":"STARLINK","tle_line2":"2 66241  53.1603   0.5977 0002676 319.7584  40.3223 15.39614193  6850","launch_date":"2025-10-29","type":"LEO","tle_line1":"1 66241U 25245H   25340.14671423  .00063930  00000+0  15951-2 0  9992","satellite_name":"STARLINK-35497"},{"norad_id":"66242","company":"STARLINK","tle_line2":"2 66242  53.1608   1.1872 0001192 107.6617 208.6962 15.39557621  5962","launch_date":"2025-10-29","type":"LEO","tle_line1":"1 66242U 25245J   25340.00003472  .00101752  00000+0  25251-2 0  9990","satellite_name":"STARLINK-35480"},{"norad_id":"66243","company":"STARLINK","tle_line2":"2 66243  53.1607   0.8761 0001342  75.0790 285.0363 15.39639613  6891","launch_date":"2025-10-29","type":"LEO","tle_line1":"1 66243U 25245K   25340.07748902  .00067032  00000+0  16700-2 0  9993","satellite_name":"STARLINK-35495"}]