[{"OBJECT_NAME":"STARLINK-35731","OBJECT_ID":"2025-244Y","EPOCH":"2025-12-06T16:00:03.000096","MEAN_MOTION":15.3965499,"ECCENTRICITY":0.00011907,"INCLINATION":53.1606,"RA_OF_ASC_NODE":304.2258,"ARG_OF_PERICENTER":107.2144,"MEAN_ANOMALY":328.0497,"EPHEMERIS_TYPE":0,"CLASSIFICATION_TYPE":"U","NORAD_CAT_ID":66228,"ELEMENT_SET_NO":999,"REV_AT_EPOCH":605,"BSTAR":-0.0028686663,"MEAN_MOTION_DOT":-0.0011358,"MEAN_MOTION_DDOT":0},{"OBJECT_NAME":"STARLINK-35758","OBJECT_ID":"2025-244Z","EPOCH":"2025-12-06T07:52:41.080800","MEAN_MOTION":15.39634633,"ECCENTRICITY":0.00014161,"INCLINATION":53.1603,"RA_OF_ASC_NODE":305.817,"ARG_OF_PERICENTER":109.2989,"MEAN_ANOMALY":250.8169,"EPHEMERIS_TYPE":0,"CLASSIFICATION_TYPE":"U","NORAD_CAT_ID":66229,"ELEMENT_SET_NO":999,"REV_AT_EPOCH":733,"BSTAR":0.002015967,"MEAN_MOTION_DOT":0.00081139,"MEAN_MOTION_DDOT":0},{"OBJECT_NAME":"STARLINK-35736","OBJECT_ID":"2025-244AA","EPOCH":"2025-12-06T07:46:27.837120","MEAN_MOTION":15.39685887,"ECCENTRICITY":3.609e-5,"INCLINATION":53.1596,"RA_OF_ASC_NODE":305.7895,"ARG_OF_PERICENTER":187.7647,"MEAN_ANOMALY":172.3352,"EPHEMERIS_TYPE":0,"CLASSIFICATION_TYPE":"U","NORAD_CAT_ID":66230,"ELEMENT_SET_NO":999,"REV_AT_EPOCH":733,"BSTAR":0.0017463556,"MEAN_MOTION_DOT":0.00070252,"MEAN_MOTION_DDOT":0},{"OBJECT_NAME":"STARLINK-35735","OBJECT_ID":"2025-244AB","EPOCH":"2025-12-06T07:45:59.294880","MEAN_MOTION":15.39694148,"ECCENTRICITY":2.309e-5,"INCLINATION":53.1615,"RA_OF_ASC_NODE":305.7878,"ARG_OF_PERICENTER":270.2619,"MEAN_ANOMALY":89.836,"EPHEMERIS_TYPE":0,"CLASSIFICATION_TYPE":"U","NORAD_CAT_ID":66231,"ELEMENT_SET_NO":999,"REV_AT_EPOCH":733,"BSTAR":0.0019453197,"MEAN_MOTION_DOT":0.00078407,"MEAN_MOTION_DDOT":0},{"OBJECT_NAME":"STARLINK-35753","OBJECT_ID":"2025-244AC","EPOCH":"2025-12-06T07:39:47.032704","MEAN_MOTION":15.3964457,"ECCENTRICITY":0.00011957,"INCLINATION":53.1609,"RA_OF_ASC_NODE":305.7611,"ARG_OF_PERICENTER":84.5295,"MEAN_ANOMALY":275.5846,"EPHEMERIS_TYPE":0,"CLASSIFICATION_TYPE":"U","NORAD_CAT_ID":66232,"ELEMENT_SET_NO":999,"REV_AT_EPOCH":733,"BSTAR":0.0017444299,"MEAN_MOTION_DOT":0.00070077,"MEAN_MOTION_DDOT":0},{"OBJECT_NAME":"STARLINK-35626","OBJECT_ID":"2025-244AD","EPOCH":"2025-12-06T08:00:01.999872","MEAN_MOTION":15.39587903,"ECCENTRICITY":0.00010892,"INCLINATION":53.1604,"RA_OF_ASC_NODE":305.692,"ARG_OF_PERICENTER":87.8507,"MEAN_ANOMALY":352.0846,"EPHEMERIS_TYPE":0,"CLASSIFICATION_TYPE":"U","NORAD_CAT_ID":66233,"ELEMENT_SET_NO":999,"REV_AT_EPOCH":593,"BSTAR":0.001762855,"MEAN_MOTION_DOT":0.00070694,"MEAN_MOTION_DDOT":0},{"OBJECT_NAME":"STARLINK-35537","OBJECT_ID":"2025-245A","EPOCH":"2025-12-06T08:32:14.201088","MEAN_MOTION":15.39634018,"ECCENTRICITY":0.00011412,"INCLINATION":53.1616,"RA_OF_ASC_NODE":359.7697,"ARG_OF_PERICENTER":75.6151,"MEAN_ANOMALY":284.498,"EPHEMERIS_TYPE":0,"CLASSIFICATION_TYPE":"U","NORAD_CAT_ID":66234,"ELEMENT_SET_NO":999,"REV_AT_EPOCH":693,"BSTAR":0.0022077891,"MEAN_MOTION_DOT":0.00088988,"MEAN_MOTION_DDOT":0},{"OBJECT_NAME":"STARLINK-35541","OBJECT_ID":"2025-245B","EPOCH":"2025-12-06T08:31:45.618240","MEAN_MOTION":15.39633432,"ECCENTRICITY":0.0001155,"INCLINATION":53.1607,"RA_OF_ASC_NODE":359.768,"ARG_OF_PERICENTER":104.797,"MEAN_ANOMALY":255.3163,"EPHEMERIS_TYPE":0,"CLASSIFICATION_TYPE":"U","NORAD_CAT_ID":66235,"ELEMENT_SET_NO":999,"REV_AT_EPOCH":688,"BSTAR":0.0022961252,"MEAN_MOTION_DOT":0.00092607,"MEAN_MOTION_DDOT":0},{"OBJECT_NAME":"STARLINK-35454","OBJECT_ID":"2025-245C","EPOCH":"2025-12-06T08:25:33.016512","MEAN_MOTION":15.39647166,"ECCENTRICITY":0.00017772,"INCLINATION":53.1602,"RA_OF_ASC_NODE":359.7399,"ARG_OF_PERICENTER":109.1511,"MEAN_ANOMALY":250.9686,"EPHEMERIS_TYPE":0,"CLASSIFICATION_TYPE":"U","NORAD_CAT_ID":66236,"ELEMENT_SET_NO":999,"REV_AT_EPOCH":677,"BSTAR":0.0019354775,"MEAN_MOTION_DOT":0.00077883,"MEAN_MOTION_DDOT":0},{"OBJECT_NAME":"STARLINK-35557","OBJECT_ID":"2025-245D","EPOCH":"2025-12-06T16:00:03.000096","MEAN_MOTION":15.39652448,"ECCENTRICITY":0.00012813,"INCLINATION":53.1602,"RA_OF_ASC_NODE":358.2493,"ARG_OF_PERICENTER":86.5418,"MEAN_ANOMALY":225.802,"EPHEMERIS_TYPE":0,"CLASSIFICATION_TYPE":"U","NORAD_CAT_ID":66237,"ELEMENT_SET_NO":999,"REV_AT_EPOCH":606,"BSTAR":-0.0021301089,"MEAN_MOTION_DOT":-0.00084751,"MEAN_MOTION_DDOT":0},{"OBJECT_NAME":"STARLINK-35556","OBJECT_ID":"2025-245E","EPOCH":"2025-12-06T12:59:17.546784","MEAN_MOTION":15.39708872,"ECCENTRICITY":0.00013286,"INCLINATION":53.1608,"RA_OF_ASC_NODE":358.7923,"ARG_OF_PERICENTER":111.6862,"MEAN_ANOMALY":248.4284,"EPHEMERIS_TYPE":0,"CLASSIFICATION_TYPE":"U","NORAD_CAT_ID":66238,"ELEMENT_SET_NO":999,"REV_AT_EPOCH":696,"BSTAR":0.0018900474,"MEAN_MOTION_DOT":0.00076183,"MEAN_MOTION_DDOT":0},{"OBJECT_NAME":"STARLINK-35554","OBJECT_ID":"2025-245F","EPOCH":"2025-12-06T11:25:20.339040","MEAN_MOTION":15.39647431,"ECCENTRICITY":0.00014569,"INCLINATION":53.1615,"RA_OF_ASC_NODE":359.0955,"ARG_OF_PERICENTER":111.412,"MEAN_ANOMALY":248.704,"EPHEMERIS_TYPE":0,"CLASSIFICATION_TYPE":"U","NORAD_CAT_ID":66239,"ELEMENT_SET_NO":999,"REV_AT_EPOCH":679,"BSTAR":0.0018581884,"MEAN_MOTION_DOT":0.00074726,"MEAN_MOTION_DDOT":0},{"OBJECT_NAME":"STARLINK-35546","OBJECT_ID":"2025-245G","EPOCH":"2025-12-06T11:19:07.606848","MEAN_MOTION":15.39654808,"ECCENTRICITY":0.00011912,"INCLINATION":53.1602,"RA_OF_ASC_NODE":359.069,"ARG_OF_PERICENTER":103.4342,"MEAN_ANOMALY":256.6796,"EPHEMERIS_TYPE":0,"CLASSIFICATION_TYPE":"U","NORAD_CAT_ID":66240,"ELEMENT_SET_NO":999,"REV_AT_EPOCH":695,"BSTAR":0.0023100056,"MEAN_MOTION_DOT":0.00093243,"MEAN_MOTION_DDOT":0},{"OBJECT_NAME":"STARLINK-35497","OBJECT_ID":"2025-245H","EPOCH":"2025-12-06T03:31:16.109472","MEAN_MOTION":15.39614193,"ECCENTRICITY":0.00026768,"INCLINATION":53.1603,"RA_OF_ASC_NODE":0.5977,"ARG_OF_PERICENTER":319.7584,"MEAN_ANOMALY":40.3223,"EPHEMERIS_TYPE":0,"CLASSIFICATION_TYPE":"U","NORAD_CAT_ID":66241,"ELEMENT_SET_NO":999,"REV_AT_EPOCH":685,"BSTAR":0.0015950757,"MEAN_MOTION_DOT":0.0006393,"MEAN_MOTION_DDOT":0},{"OBJECT_NAME":"STARLINK-35480","OBJECT_ID":"2025-245J","EPOCH":"2025-12-06T00:00:02.999808","MEAN_MOTION":15.39557621,"ECCENTRICITY":0.00011927,"INCLINATION":53.1608,"RA_OF_ASC_NODE":1.1872,"ARG_OF_PERICENTER":107.6617,"MEAN_ANOMALY":208.6962,"EPHEMERIS_TYPE":0,"CLASSIFICATION_TYPE":"U","NORAD_CAT_ID":66242,"ELEMENT_SET_NO":999,"REV_AT_EPOCH":596,"BSTAR":0.0025251252,"MEAN_MOTION_DOT":0.00101752,"MEAN_MOTION_DDOT":0},{"OBJECT_NAME":"STARLINK-35495","OBJECT_ID":"2025-245K","EPOCH":"2025-12-06T01:51:35.051328","MEAN_MOTION":15.39639613,"ECCENTRICITY":0.00013429,"INCLINATION":53.1607,"RA_OF_ASC_NODE":0.8761,"ARG_OF_PERICENTER":75.079,"MEAN_ANOMALY":285.0363,"EPHEMERIS_TYPE":0,"CLASSIFICATION_TYPE":"U","NORAD_CAT_ID":66243,"ELEMENT_SET_NO":999,"REV_AT_EPOCH":689,"BSTAR":0.0016700071,"MEAN_MOTION_DOT":0.00067032,"MEAN_MOTION_DDOT":0}]
